Company Name,Profile Heading,About Company,Email,Contact,Toll Free Number,Main Address,Address Pin Code,Address URL,Company Registration Number,Country,State,City
Popular Packers and movers,Popular Packers And Movers,,,,,"6-A, Ripon Street, Park Street",700016,,,India,West Bengal,Kolkata
Agarwal Packers and movers,Agarwal Packers And Movers,,,,,"115 Duttabad Road, Near Fuleswari Jewelry, Sector I, Bidhannagar",700064,,,India,West Bengal,Kolkata
Rajput Packers and Movers,Rajput Packers And Movers,,,,,"H-H-10 Baguiati Road, Rajarhat",700159,,,India,West Bengal,Kolkata
MN Packers And Movers,Mn Packers And Movers,,,,,"16 A/1, Linton Street, Near Benia Bazar",700014,,,India,West Bengal,Kolkata
Leo home Packers And Movers,Leo Home Packers And Movers,,,,,"52, Ripon Street, Near Collin Street Jama Masjid, Park Street",700016,,,India,West Bengal,Kolkata
Direlco Packers and movers,Direlco Packers And Movers,,,,,"56/A-58 Nordsern Part, BT Road",700108,,,India,West Bengal,Kolkata
GATI Packers and Movers,Gati Packers And Movers,,,,,"EE Block Main Lane 1, Bidhannagar",700091,,,India,West Bengal,Kolkata
National Packers and Movers,National Packers And Movers,,,,,"New Alipore Road, Near Zoological Survey Of India, Tollygunge",700053,,,India,West Bengal,Kolkata
Packers and Movers Salt lake City,Packers And Movers Salt Lake City,,,,,"India Power Building, Plot no. X-1, 2&3, Block EP, Sector V, Salt Lake City, Rajarhat",700091,,,India,West Bengal,Kolkata
Indian Packers And Movers,Indian Packers And Movers,,,,,6/6 Acharya Jagadish Chandra Bose Road,700017,,,India,West Bengal,Kolkata
Apl Packers And Movers,Apl Packers And Movers,,,,,"3/46, Ground Floor, Gupta Appartment",700117,,,India,West Bengal,Kolkata
Sree Hori Om Packers And Movers,Sree Hori Om Packers And Movers,,,,,"208, PWD Road, UB Colony, Ariadaha",700035,,,India,West Bengal,Kolkata
VRL Packers And Logistics,Vrl Packers And Logistics,,,,,"A/31, Lake View Park, Bonhooghly, North 24 Parganas",700108,,,India,West Bengal,Kolkata
Sri Balaji Packers And Movers,Sri Balaji Packers And Movers,,,,,"Ac 138, Prafulla Kanan, Kestopur",700101,,,India,West Bengal,Kolkata
DRS Group Packers And Movers,Drs Group Packers And Movers,,,,,"DLF Galleria, 8 No, Major Arterial Road, South East Extension, BL-AF, Flat DGK-514, 5th Floor",700156,,,India,West Bengal,Kolkata
Euro Packers And Movers,Euro Packers And Movers,,,,,"C-32, Lake View Park Road, Bonhooghly",700108,,,India,West Bengal,Kolkata
Rahul Packers And Movers,Rahul Packers And Movers,,,,,"Duttabad Road, Salt Lake Sector I",700064,,,India,West Bengal,Kolkata
Sunrisers Movers And Packers,Sunrisers Movers And Packers,,,,,"178 Lake Town, Rajarhat",700055,,,India,West Bengal,Kolkata
KumKum Packers And Movers,Kumkum Packers And Movers,,,,,Hatiara,700059,,,India,West Bengal,Kolkata
Sutapa Packers Movers,Sutapa Packers Movers,,,,,"101 Dumdum Road, Near Hanuman Mandir",700074,,,India,West Bengal,Kolkata
Vijay Logistics Packers and Movers,Vijay Logistics Packers And Movers,,,,,"167/a2, B.T. Road, Near Sun Diagnostic Center, Baranagar",700090,,,India,West Bengal,Kolkata
Jevyes Packers And Movers,Jevyes Packers And Movers,,,,,"127a/aN, Ramakrishna Samadhi Road, Kadapara, Kankurgachi",700054,,,India,West Bengal,Kolkata
Mother Packers And Movers,Mother Packers And Movers,,,,,"157, Maniktala Main Rd, Scheme Vi-m, Manicktala, Garpar, Kankurgachi",700054,,,India,West Bengal,Kolkata
AD Packers And Movers,Ad Packers And Movers,,,,,"157, 2, Maniktala Main Road, Near Bengal Chemicals, Kankurgachi",700054,,,India,West Bengal,Kolkata
Deepak Cargo Packers And Movers,Deepak Cargo Packers And Movers,,,,,"156/B/4, B T Road, Near Chandhok Motors",700108,,,India,West Bengal,Kolkata
Roy Packers And Movers,Roy Packers And Movers,,,,,"174, 2, Maniktala Main Rd, Manicktala, Phool Bagan, Kankurgachi",700054,,,India,West Bengal,Kolkata
D Maria Packers And Movers,D Maria Packers And Movers,,,,,"16, India Exchange PL Road, Murgighata, B B D Bagh",700001,,,India,West Bengal,Kolkata
Gupta Home Packers And Movers,Gupta Home Packers And Movers,,,,,"1005, Park Street, Near UCO Bank (Chowringhee), Taltala",700071,,,India,West Bengal,Kolkata
Megha Packers And Movers,Megha Packers And Movers,,,,,"115 Duttabad Road, Megha House, Saltlake, Duttabad Road",700064,,,India,West Bengal,Kolkata
Anil Packers And Movers,Anil Packers And Movers,,,,,"84-a-10, Baruiparalane, Tetutala, Dunlop",700035,,,India,West Bengal,Kolkata
Kainaat Packers And Movers,Kainaat Packers And Movers,,,,,"Holding NO 39, U.B Colony, Dunlop, 3, P.W.D Road",700108,,,India,West Bengal,Kolkata
Parizaad Packers Movers,Parizaad Packers Movers,,,,,"827A, Flat-2A, Block-A, Lake Town",700089,,,India,West Bengal,Kolkata
Kolkata packers and movers,Kolkata Packers And Movers,,,,,"P 161, Upen Benerjee Road, Parnasree Palli, Behala",700060,,,India,West Bengal,Kolkata
Radhabina Packers And Movers,Radhabina Packers And Movers,,,,,"18/1 Kalikapur, Garfa, Jadavpur Kolkata U2013 ",700099,,,India,West Bengal,Kolkata
ACM Packers And Movers,Acm Packers And Movers,,,,,"Weston Street, Bowbazar",700012,,,India,West Bengal,Kolkata
JRJ Logistics,,,,,,"G-105 Shop, Fantasia Multiplex & Intertainment Complex, Plot No-47 ,Sector-30A, Washi 400703",400703,,,India,Maharasthra,Osmanabad
Ekart Logistics,,,,,,"Tower 5(A,B,C), Embassy Tech Village, Bengaluru, Karnataka - 560103",560103,,,India,Karnataka,Bangalore
Allianz Packers And Movers,,,,,,"Plot No- 44A,  B Block, Rangpur, MAHIPALPUR, NEW DELHI 110037, INDIA",110037,,,India,New Delhi,New Delhi
Shifting Express,,,,,,"Shop no :08,1st floor Harola,sector 05 Noida 201301 ",201301,,,India,New Delhi,Noida
Skywing Packers And Movers,,,,,, No.6 Munirka Kunj Near Shokeen Zim Dinpur Najafgarh  New Delhi,110043,,,India,New Delhi,New Delhi
Safe Express Packers And Movers,,,,,,"Safexpress Pvt. Ltd., 28, Sector 18, Udyog Vihar, Gurugram- 122015, India",122015,,,India,New Delhi,Gurugram
