Company Name,Profile Heading,About Company,Email,Contact,Toll Free Number,Main Address,Address Pin Code,Address URL,Company Registration Number,Country,State,City
Ranjit Mondal And Associates Law Firm,Ranjit Mondal And Associates Law Firm,,,,,"AD-107/1, Krishnapur, P. O, Samar Dey Sarani, Baguiati",700102,,,India,West Bengal,Kolkata
Astha Legal Consultant,Astha Legal Consultant,,,,,"1 Jessore Road, South Dum-Dum",700074,,,India,West Bengal,Kolkata
Agarwal Legal Services,Agarwal Legal Services,,,,,75/C Mullick Colony Baranagar Opposite Football Ground B T Road,700036,,,India,West Bengal,Kolkata
Vidhikarya Legal Services,Vidhikarya Legal Services,,,,,"Terminus Building, 529, 5th Floor, Action Area 1, New Town, North 24 Parganas",700156,,,India,West Bengal,Kolkata
AGMC Legal Services,AGMC Legal Services,,,,,"Ground Floor Flat D, 107 OLD 85 R N Guha Road",700028,,,India,West Bengal,Kolkata
Online Legal India,Online Legal India,,,,,"Kariwala Towers, 8th Floor, J1-5, EP Block, Salt Lake Sec-V",700091,,,India,West Bengal,Kolkata
Agama Law associates,Agama Law associates,,,,,"1301, 13TH FLOOR, LODHA SUPREMUS, OPP. MTNL OFFICE SAKI VIHAR ROAD POWAI",400072,,,India,Maharasthra,Mumbai
Agarwal Law Associates,Agarwal Law Associates,,,,,19 BABAR ROAD BENGALI MARKET,110001,,,India,New Delhi,New Delhi
Agrud Partners,Agrud Partners,,,,,"13, NARIMAN BHAVAN, NARIMAN POINT",400021,,,India,Maharasthra,Mumbai
Ahlawat Associates,Ahlawat Associates,,,,,"OKHLA PHASE III, OKHLA INDUSTRIAL ESTATE",110020,,,India,New Delhi,New Delhi
AK And Partners,AK And Partners,,,,,"C-18, THIRD FLOOR, C BLOCK MARKET VASANT VIHAR",110057,,,India,New Delhi,New Delhi
ALMT Legal,ALMT Legal,,,,,"215 FREE PRESS JOURNAL MARG, NARIMAN POINT",400021,,,India,Maharasthra,Mumbai
Amicus,Amicus,,,,,"258, 3RD & 4TH FLOOR OKHLA INDUSTRIAL ESTATE PHASE III ",110020,,,India,Uttar Pradesh,Okhla
Anant Law,Anant Law,,,,,A-2/2 VASANT VIHAR ,110057,,,India,New Delhi,New Delhi
ANB Legal,ANB Legal,,,,,"DBS HERITAGE HOUSE PRESCOTT LANE, FORT ",400001,,,India,Maharasthra,Mumbai
Anhad Law,Anhad Law,,,,,"E-38 GREATER KAILASH PART - I LOWER GROUND FLOOR, OPP. INDUS BIZNOTEL ",110048,,,India,New Delhi,New Delhi
AP And Partners,AP And Partners,,,,,"E-14/3, VASANT VIHAR ",110057,,,India,New Delhi,New Delhi
Archeus Law,Archeus Law,,,,,SUITES 921-923 DLF TOWER B,110025,,,India,New Delhi,New Delhi
Angus Partners,Angus Partners,,,,,9 – 10 BAHADUR SHAH ZAFAR MARG ,110002,,,India,New Delhi,New Delhi
Ashlar Law,Ashlar Law,,,,,"209, REWA CHAMBERS 31 NEW MARINE LINES ",400020,,,India,Maharasthra,Mumbai
ASP Advocates,ASP Advocates,,,,,"C-530, DEFENCE COLONY",110024,,,India,New Delhi,New Delhi
Atlas Law Partners,Atlas Law Partners,,,,,"250, OKHLA INDUSTRIAL ESTATE PHASE 3 RD",110020,,,India,New Delhi,New Delhi
AZB And Partners,AZB And Partners,,,,,"AZB HOUSE, PENINSULA CORPORATE PARK GANPATRAO KADAM MARG, LOWER PAREL",400013,,,India,Maharasthra,Mumbai
Beruar And Beruar,Beruar And Beruar,,,,,D-155 THIRD FLOOR DEFENSE COLONY ,110024,,,India,Uttarakhand,Dehra Dun
Bharucha And Partners,Bharucha And Partners,,,,,"FREE PRESS JOURNAL MARG, NARIMAN POINT ",400021,,,India,Maharasthra,Mumbai
Brus Chambers,Brus Chambers,,,,,"8 RAJABAHADUR MANSION 3RD FLOOR, AMBALAL DOSHI MARG, FORT ",400001,,,India,Maharasthra,Mumbai
BTG Legal,BTG Legal,,,,,"2ND FLOOR, HAGUE BUILDING, SS RAM GULAM MARG, BALLARD ESTATE",400001,,,India,Maharasthra,Mumbai
Charter Law Chambers,Charter Law Chambers,,,,,"D-389, BLOCK D, DEFENCE COLONY",110049,,,India,New Delhi,New Delhi
Chiramel and co,Chiramel and co,,,,,THAKKAR SADEN LINK ROAD,110055,,,India,New Delhi,New Delhi
Clasis Law,Clasis Law,,,,,"4TH FLOOR, TOLSTOY HOUSE TOLSTOY MARG ",110001,,,India,New Delhi,New Delhi
Cyril Amarchand Mangaldas,Cyril Amarchand Mangaldas,,,,,"PENINSULA CHAMBERS, PENINSULA CORPORATE PARK LOWER PARE",400013,,,India,Maharasthra,Mumbai
Dentons Link Legal,Dentons Link Legal,,,,,AIWAN-E-GHALIB COMPLEX MATA SUNDARI LANE,110002,,,India,New Delhi,New Delhi
De Penning And De Penning,De Penning And De Penning,,,,,120 VELACHERY MAIN ROAD GUINDY,600032,,,India,Tamil Nadu,Chennai
Dhaval Vussonji,Dhaval Vussonji,,,,,"113-114 FREE PRESS HOUSE 215 FREE PRESS JOURNAL MARG, NARIMAN POINT ",400021,,,India,Maharasthra,Mumbai
Dhir And Dhir Associates,Dhir And Dhir Associates,,,,,D-55 DEFENCE COLONY ,110024,,,India,New Delhi,New Delhi
Dhwaj And Associates,Dhwaj And Associates,,,,,"7TH FLOOR, LOGIX OFFICE TOWER SECTOR 32, NOIDA",201301,,,India,Uttar Pradesh,Noida
Finsec Law Advisors,Finsec Law Advisors,,,,,"904B, THE CAPITAL, BKC",400051,,,India,Maharasthra,Mumbai
Fox Mandal And Associates,Fox Mandal And Associates,,,,,"ROAD NO.:36, JUBILEE HILLS ",500033,,,India,Telengana,Hyderabad
Gagrats,Gagrats,,,,,"NIRMAL, 12TH FLOOR NARIMAN POINT ",400021,,,India,Maharasthra,Mumbai
Ganesan Manuraj LLP,Ganesan Manuraj LLP,,,,,"G-11, GAIETY PALACE, NO. 1, BLACKERS RD CHINDATRIPET",600002,,,India,Tamil Nadu,Chennai
Gopakumar Nair Associates,Gopakumar Nair Associates,,,,,"NEAR SAI DHAM, THAKUR COMPLEX KANDIVLI (EAST) ",400101,,,India,Maharasthra,Mumbai
Goswami and Nigam LLP,Goswami and Nigam LLP,,,,,"24, JANGPURA -A, MATHURA ROAD ",110014,,,India,New Delhi,New Delhi
Gravitas Legal,Gravitas Legal,,,,,"A-141, PORTION B, NEETI BAGH ",110049,,,India,New Delhi,New Delhi
Indialaw LLP,Indialaw LLP,,,,,"APEEJAY CHAMBERS, GROUND FLR, WALLACE ST, FORT 
",400001,,,India,Maharasthra,Mumbai
Indus Law,Indus Law,,,,,"SENAPATI BAPAT MARG, LOWER PAREL",400013,,,India,Maharasthra,Mumbai
JSA Law,JSA Law,,,,,"B 303, 3RD FLOOR, ANSAL PLAZA, HUDCO PLACE, AUGUST KRANTI MARG",110049,,,India,New Delhi,New Delhi
Juris Arena,Juris Arena,,,,,"PRESTIGE CENTRE POINT', CUNNINGHAM ROAD",560052,,,India,Karnataka,Bangalore
Juris Corp,Juris Corp,,,,,"302, CENTURY BHAVAN, 3RD FLOOR DR ANNIE BESANT ROAD",400030,,,India,Maharasthra,Mumbai
Just Law,Just Law,,,,,"NO 24, KESHAVA NIVAS GANDHINAGAR
",560009,,,India,Karnataka,Bangalore
Kachwaha And partners,Kachwaha And partners,,,,,"1/6 SHANTI NIKETAN 
",110021,,,India,New Delhi,New Delhi
Khaitan and Co,Khaitan and Co,,,,,"TOWER 1, 841 SENAPATI BAPAT MARG",400013,,,India,Maharasthra,Mumbai
KIAA LLP,KIAA LLP,,,,,I-44 JUNGPURA EXT. ,110014,,,India,New Delhi,New Delhi
"King, Stubb And Kasiva","King, Stubb And Kasiva",,,,,"UNIT 14, GROUND FLOOR, DLF TOWER A, JASOLA",110025,,,India,New Delhi,New Delhi
Lall And Sethi,Lall And Sethi,,,,,"D-17, SOUTH EXTENSION - II IL",110049,,,India,New Delhi,New Delhi
Lawmen and white,Lawmen and white,,,,,"D-375, DEFENCE COLONY",110024,,,India,New Delhi,New Delhi
Law Point,Law Point,,,,,"301 VAIBHAV CHAMBERS BANDRA-KURLA COMPLEX, BANDRA (EAST) 

",400051,,,India,Maharasthra,Mumbai
Legacy Law Offices,Legacy Law Offices,,,,,"D-18, NEHRU ENCLAVE, KALKAJI 
",110019,,,India,New Delhi,New Delhi
Lex Counsel,Lex Counsel,,,,,"B-4/232, SAFDARJUNG ENCLAVE 
",110029,,,India,New Delhi,New Delhi
Luthra and Luthra,Luthra and Luthra,,,,,"1ST & 9TH FLOORS, ASHOKA ESTATE BARAKHAMBA ROAD


",110001,,,India,New Delhi,New Delhi
Mahendra Bhavsar And Co,Mahendra Bhavsar And Co,,,,,"B/201-204, 2ND FLOOR, ATMA HOUSE OPP LA-GAIIAR CHAMBERS, ASHRAM ROAD

",380009,,,India,Gujarat,Ahmedabad
Majumdar And Partners,Majumdar And Partners,,,,,"RAHEJA CHAMBERS, 2ND FLOOR FREE PRESS JOURNAL ROAD, NARIMAN POINT 

",400021,,,India,Maharasthra,Mumbai
Mansukhlal Hiralal And Company,Mansukhlal Hiralal And Company,,,,,"SURYA MAHAL 2ND FLOOR 5, BURJORJI BHARCHA MARG FORT
",400023,,,India,Maharasthra,Mumbai
Mehta And Mehta Associates,Mehta And Mehta Associates,,,,,"MEHTA HOUSE, B-474, SUSHANT LOK-I, SECTOR-27 
",122002,,,India,New Delhi,New Delhi
MZM Legal Advocates,MZM Legal Advocates,,,,,"DR. V.B.GANDHI MARG, KALAGHODA 
",400001,,,India,Maharasthra,Mumbai
Obhan And Associates,Obhan And Associates,,,,,"N-94, SECOND FLOOR PANCHSHILA PARK
",110017,,,India,New Delhi,New Delhi
P And A Law Offices,P And A Law Offices,,,,,"1ST FL. DR. GOPAL DAS BHAVAN 28 BARAKHAMBA RD.
",110001,,,India,New Delhi,New Delhi
Phoenix Legal,Phoenix Legal,,,,,"1-3 FLOOR, 254 , OKHLA PHASE 3
",110020,,,India,New Delhi,New Delhi
PSA,PSA,,,,,"14A&B HANSALAYA 15 BARAKHAMBA ROAD
",110001,,,India,New Delhi,New Delhi
Rahul Chaudhry And Partners,Rahul Chaudhry And Partners,,,,,"RYC HOUSE PLOT, NO. B-28, SECTOR 32 INSTITUTIONAL AREA",12202,,,India,New Delhi,New Delhi
Remfry And Sugar,Remfry And Sugar,,,,,"REMFRY HOUSE AT THE MILLENNIUM PLAZA SECTOR 27

",12209,,,India,New Delhi,New Delhi
RNCLegal,RNCLegal,,,,,"MAULSERI HOUSE 7 KAPASHERA ESTATE

",110037,,,India,New Delhi,New Delhi
Royzz And Co Attorneys at Law,Royzz And Co Attorneys at Law,,,,,"D-214 FLORAL DECK PLAZA OFF MIDC CENTRAL RD, ANDHERI EAST
",400093,,,India,Maharasthra,Mumbai
S And A Law Offices,S And A Law Offices,,,,,"THIRD FLOOR, S&A TOWER, PLOT NO 5,6,7, UDYOG VIHAR, PHASE-4
",122015,,,India,Punjab,Gurugram
SS Rana And Co,SS Rana And Co,,,,,"317 LAWYERS' CHAMBERS HIGH COURT OF DELHI
",110003,,,India,New Delhi,New Delhi
Sagus Legal,Sagus Legal,,,,,"S-35B, FIRST FLOOR PANCHSHEEL PARK",110017,,,India,New Delhi,New Delhi
Sim And San,Sim And San,,,,,"A-12, GULMOHAR PARK, 110049",110049,,,India,West Bengal,Kolkata
Singh And Singh Law Firm,Singh And Singh Law Firm,,,,,C-139 DEFENCE COLONY ,110024,,,India,New Delhi,New Delhi
Singularity Legal,Singularity Legal,,,,,"113-B, MITTAL COURT NARIMAN POINT

",400021,,,India,Maharasthra,Mumbai
SNG And Partners,SNG And Partners,,,,,"9TH FLOOR, NEHRU CENTRE, DR. ANNIE BESANT ROAD,
WORLI
",400018,,,India,Maharasthra,Mumbai
Spectrum Legal,Spectrum Legal,,,,,"101, 30/A, 1 ST FLOOR PROMENADE ROAD",560005,,,India,Karnataka,Bangalore
Stratage Law,Stratage Law,,,,,"156 ABC MAKER CHAMBERS III
NARIMAN POINT
",400021,,,India,Maharasthra,Mumbai
Swarup And Company,Swarup And Company,,,,,"6TH FLOOR, JK BUILDING VIPPS CENTRE, NO 2 MASJID MOTH, LSC GREATER KAILASH-II

",110048,,,India,New Delhi,New Delhi
Talwar Thakore And Associates,Talwar Thakore And Associates,,,,,"3RD FLOOR, KALPATARU HERITAGE 127 M G ROAD FORT

",400001,,,India,Maharasthra,Mumbai
Titus And Co.,Titus And Co.,,,,,"R-77A, GREATER KAILASH PART-I 
",110048,,,India,New Delhi,New Delhi
TMT Law Practice,TMT Law Practice,,,,,"C-2/39 | SAFDARJUNG DEVELOPMENT AREA 
",110016,,,India,New Delhi,New Delhi
Tuli And Co,Tuli And Co,,,,,"LEVEL 14, OFFICE B MAX TOWERS SECTOR 16B

",201301,,,India,Uttar Pradesh,Noida
UJ Legal LLP,UJ Legal LLP,,,,,"212, RATTAN JYOTI, SECTOR 4 VAISHALI
",201010,,,India,Uttar Pradesh,Noida
ZBA,ZBA,,,,,"412 RAHEJA CHAMBERS 213 NARIMAN POINT

",400021,,,India,Maharasthra,Mumbai
Provakil,Provakil,,,,,"B-704, Amar Business Zone, Baner",411045,,,India,Maharasthra,Mumbai
Legistify,Legistify,,,,,"1st Floor, Plot 113, Sec Haryana 122003 44, Gurugram ",122003,,,India,Punjab,Gurugram
Spotdraft,Spotdraft,,,,,"4th Floor, UrbanVault, 97, 17th Cross Road, Sector 4, HSR Layout",560102,,,India,Karnataka,Bangalore
Volody,Volody,,,,,"Eco House 604, Vishveshwar Nagar Rd, Churi Wadi, Goregaon",400063,,,India,Maharasthra,Mumbai
Quant Legal Tech,Quant Legal Tech,,,,,"25/2, 8TH Floor, SN Towers MG Road",560001,,,India,Karnataka,Bangalore
Mike Legal,Mike Legal,,,,,"Town House, D-1 Uniworld City Sector-30",122001,,,India,Punjab,Gurugram
VakilSearch,VakilSearch,,,,,"2nd floor, B-Block, BHIVE Workspace - No.112, AKR Tech Park, 'A' and 7th Mile Hosur Rd, Krishna Reddy Industrial Area",560068,,,India,Karnataka,Bangalore
