Company Name,Profile Heading,About Company,Email,Contact,Toll Free Number ,Main Address,Address Pin Code,Address URL,Company Registration Number,Country,State,City
Embellish family Salon And Spa,Embellish Family Salon And Spa,,,,,"514, Kalikapur Road, Haltu, Kolkata - (Nearby HDFC Bank Kalikapur Branch)",700078,,,India,West Bengal,Kolkata
Sun Salon And Beauty Palrour,Sun Salon And Beauty Parlour,,,,,"Kamdebpur Bishnu Market Nh34, National Highway Krishnanagar Road, Krishnanagar, Kolkata (Patdola Basthalay)",700154,,,India,West Bengal,Kolkata
The Blue Barbour,The Blue Barbour,,,,,"Nabapally, Kabi Sukanta Road, Navapally, Kolkata  (Near Barasat)",700126,,,India,West Bengal,Kolkata
Lafemme,Lafemme,,,,,"42, P.o, Ambagan Main Road, Ambagan Main Roadpanchanantala Road, Sukchar",700115,,,India,West Bengal,Kolkata
RK Saloon And Beauty Parlour,RK Saloon And Beauty Parlour,,,,,"18, Bhowanipore, Dhirendranath Ghosh Road",700025,,,India,West Bengal,Kolkata
Aastha Spa,Aastha Spa,,,,,"24 Park Street, Ground Floor, Magma House Complex",700016,,,India,West Bengal,Kolkata
Colours Hair And Beauty,Colours Hair And Beauty,,,,,"8 B, Wood Street Road, Near Erudite Educational Center, Mr Saturday Club",700017,,,India,West Bengal,Kolkata
Freesia Salon And Spa,Freesia Salon And Spa,,,,,8B Dover Road,700019,,,India,West Bengal,Kolkata
Mike Regan Salon,Mike Regan Salon,,,,,"10/3, Chandra Nath Roy Road, Panchanna Pally, Tiljala",700039,,,India,West Bengal,Kolkata
Head Turners,Head Turners,,,,,"3, Gurusaday Dutta Road, Rowland Row, Ballygunge",700019,,,India,West Bengal,Kolkata
Style Check Family Salon,Style Check family Salon,,,,,"61/V, Topsia Rd, Topsia",700039,,,India,West Bengal,Kolkata
Arshi Beauty And Spa,Arshi Beauty And Spa ,,,,,"131/E A.P.C Road Kolkata-700006, Near Karbala Bus Stop (Maniktala)",700006,,,India,West Bengal,Kolkata
Swastika salon,Swastika Salon,,,,,"Tiljala Road, Near Icici Bank, Entally",700014,,,India,West Bengal,Kolkata
Artistry Family Salon,Artistry Family Salon,,,,,"67, Shakespeare Sarani Road, Elgin",700017,,,India,West Bengal,Kolkata
Looks Professional Salon,Looks Professional Salon,,,,,"112, Near St Paul's College",700009,,,India,West Bengal,Kolkata
Elegance Therapeutic,Elegance Therapeutic,,,,,Mithu's SPA,700099,,,India,West Bengal,Kolkata
Sajo Ladies Beauty Parlour,Sajo Ladies Beauty Parlour,,,,,"Kazi Nazrul Islam Avenue, Baguiati",700159,,,India,West Bengal,Kolkata
The Aroma Thai Spa,The Aroma Thai Spa,,,,,"Shop No 259 2Nd Floor, Axis Mall, Newtown Rajarhat, New Town",700156,,,India,West Bengal,Kolkata
Mirror Ladies,Mirror Ladies,,,,,"Purbalok, Kalikapur, Kolkata . Beside Metro Cash N Carry",700099,,,India,West Bengal,Kolkata
Orabelle Salon,Orabelle Salon,,,,,"Shop # 261, Nkda Market, AA1C, Block CB, New Town",700156,,,India,West Bengal,Kolkata
Face To Face Salon,Face To Face Salon,,,,,"Barakhola Mukundapur Main Road, Nitai Nagar, Mukundapur",700099,,,India,West Bengal,Kolkata
Raza Hair Salon,Raza Hair Salon,,,,,"No 50 A, Martinpara Vip Nagar",700100,,,India,West Bengal,Kolkata
Sunflower Ladies Beauty Parlour,Sunflower Ladies Beauty Parlour,,,,,"Kazi Nazrul Islam Avenue, Near Annapurna Restaurant, Baguiati",700159,,,India,West Bengal,Kolkata
Winnie The Beauty Salon,Winnie The Beauty Salon,,,,,"Cl-166, Shiv Bhawan, Cl Block Road, Sector 2, Salt Lake City, Rajarhat",700091,,,India,West Bengal,Kolkata
Dhrubo Salon,Dhrubo Salon,,,,,"407, New Town Action Area I",700156,,,India,West Bengal,Kolkata
Star Salon,Star Salon,,,,,"Mukundpur Road, Near Indian Overseas Bank, Chit Kalikapur, Mukundapur",700099,,,India,West Bengal,Kolkata
Satin Rose Salon And Spa,Satin Rose Salon And Spa,,,,,"Fe 426, Sector Iii, Salt Lake",700106,,,India,West Bengal,Kolkata
Seven Star,Seven Star,,,,,"1A, Ekdalia Place, Near Ballygunge Railway Station, Ballygunge, Ekdalia",700019,,,India,West Bengal,Kolkata
Cocktail Family Salon And Spa,Cocktail Family Salon And Spa,,,,,"23 Gurusaday Road, Opp. Mainland China",700016,,,India,West Bengal,Kolkata
La Bella,La Bella,,,,,"22/3, Baroaritala Road, Near Durganagar Railway Station, Durganagar",700079,,,India,West Bengal,Kolkata
Tilottama,Tilottama,,,,,"Nafar Chandra Naskar Road, Chotobothtala, Garia, Chhoto Bot Tala, Central Balia",700084,,,India,West Bengal,Kolkata
Selfie Family Salon,Selfie Family Salon,,,,,"No 560, Naskarhat, Tagore Park",700039,,,India,West Bengal,Kolkata
Modern Salon,Modern Salon,,,,,"Broad Way Road, Near Design Pvt. Ltd., Sector 3, Bidhan Nagar",700106,,,India,West Bengal,Kolkata
Fresh Men's Salon,Fresh Men's Salon,,,,,"Netaji Nagar Road, Near Radha Krishna Jewelry, Purbalok, Mukundapur",700099,,,India,West Bengal,Kolkata
VIP Salon,VIP Salon,,,,,"Picnic Garden Road, Near Rubina Enterprises, Bidhan Nagar, Tiljala",700039,,,India,West Bengal,Kolkata
Galaxy Gents Salon,Galaxy Gents Salon,,,,,"VIP Nagar Road, Near Bangiya Gramin Vikash Bank, Hastings Colony, VIP Nagar",700100,,,India,West Bengal,Kolkata
Rashmi Beauty Salon,Rashmi Beauty Salon,,,,,"Kalikapur Road, Near Soni Kali Mandir, Sukhpally, Haltu",700099,,,India,West Bengal,Kolkata
New Salon,New Salon,,,,,"Beleghata Main Road, Near Joramandir, Kulia, Beliaghata",700015,,,India,West Bengal,Kolkata
C Ladies Parlour,C Ladies Parlour,,,,,"Dr. KS Rao Road, Near Auto Stand, KPC Medical College and Hospital Campus, Jadavpur",700032,,,India,West Bengal,Kolkata
Florence Salon And Spa,Florence Salon And Spa,,,,,"Kalikapur Road, Near Alibaba Restaurant, Sukhpally, Haltu",700099,,,India,West Bengal,Kolkata
Zion Salon And Spa,Zion Salon And Spa,,,,,Behala,700012,,,India,West Bengal,Kolkata
Tulis Hair And Beauty Salon,Tulis Hair And Beauty Salon,,,,,"1625a, Rajdanga Main Road",700078,,,India,West Bengal,Kolkata
Desire Ladies Beauty parlour,Desire Ladies Beauty parlour,,,,,"Netaji Nagar Road, Near Radha Krishna Jewelry, Purbalok, Mukundapur",700099,,,India,West Bengal,Kolkata
S Max Salon,S Max Salon,,,,,"84B/L, Chandra Nath Roy Road, Near Sri Sri Shani Mandir, Topsia",700046,,,India,West Bengal,Kolkata
Trendz Spa,Trendz Spa,,,,,10/3 Hunger Ford Street Kol 17,700017,,,India,West Bengal,Kolkata
Titly's Beauty And Spa Saloon,Titly's Beauty And Spa Saloon,,,,,Beleghata Main Road,700010,,,India,West Bengal,Kolkata
Lona beauty Salon,Lona Beauty Salon,,,,,"1L, Natore Park, 3Rd Road",700039,,,India,West Bengal,Kolkata
Hairology Family Salon,Hairology Family Salon,,,,,"33/1A, Ahiripukar Road, Near Peter Day School",700019,,,India,West Bengal,Kolkata
Imam Salon,Imam Salon,,,,,"Bondel Road, Near Icici Bank, Kata Pukur, Nator Park",700039,,,India,West Bengal,Kolkata
Rimi Thai Spa Parlour,Rimi Thai Spa Parlour,,,,,"1858/1, Rajdanga Main Road, Sector 1, East Kolkata Township, Shantipally, Sector B, East Kolkata Twp",700107,,,India,West Bengal,Kolkata
New Good Luck Salon,New Good Luck Salon,,,,,"Picnic Garden Road, Tiljala",700039,,,India,West Bengal,Kolkata
Professional Saloon,Professional Saloon,,,,,"1, Garcha, Ballygunge",700026,,,India,West Bengal,Kolkata
Sagar Saloon,Sagar Saloon,,,,,"18 No Kayastha Para, Haltu, Main Road",700078,,,India,West Bengal,Kolkata
Biney Xclusive,Biney Xclusive,,,,,"Dhakuria Station Road, Dhakuria",700031,,,India,West Bengal,Kolkata
Caress Spa And saloon,Caress Spa And Saloon,,,,,"12, Kalikapur Main Road, Kalikapur, Haltu",700099,,,India,West Bengal,Kolkata
The Be Bonnie,The Be Bonnie,,,,,87-B Raja S C Mullick Road,700047,,,India,West Bengal,Kolkata
Happy Family Salon And Spa,Happy Family Salon And Spa,,,,,"42, Laxmi Narayan Colony, Chkravartipara, Barasat",700126,,,India,West Bengal,Kolkata
Heaven Beauty,Heaven Beauty,,,,,"35, Nabagram, Panchpota",700152,,,India,West Bengal,Kolkata
Re Define,Re Define,,,,,"C/228, Sh1, Santoshpur",700075,,,India,West Bengal,Kolkata
Sofiyana,Sofiyana,,,,,"1st Lane, Garia Station Road",700084,,,India,West Bengal,Kolkata
Prince Salon,Prince Salon,,,,,"Nabagram Jheel Road, Near Evergreen Jewelers, Nabagram, Panchpota",700152,,,India,West Bengal,Kolkata
Royale Family Salon,Royale Family Salon,,,,,"Block-A 4Th Floor, Jindal Tower, 21/A/3, Darga Road",700017,,,India,West Bengal,Kolkata
Final Touch,Final Touch,,,,,Picnic Garden Road,700039,,,India,West Bengal,Kolkata
Jesmin Spa And Beauty Clinic,Jesmin Spa And Beauty Clinic,,,,,"7/9 Poddar Nagar, p.o. Jodhpur Park, p.s. Jadavpur, kol  Near South City Shopping Mall",700068,,,India,West Bengal,Kolkata
Eelina Spa And Beauty Salon,Eelina Spa And Beauty Salon,,,,,Gayatri Bhawan Raja Subodh Chandra Mullick Road,700047,,,India,West Bengal,Kolkata
Sonis hair And Beauty Salon,Sonis Hair And Beauty Salon,,,,,185/1c Nsc Bose Road,700040,,,India,West Bengal,Kolkata
Look Me Beauty Salon,Look Me Beauty Salon,,,,,14 K K M Road,700075,,,India,West Bengal,Kolkata
Blaze,Blaze,,,,,"E-180, Ramgarh Road, Near Zeeshan, Garia",700032,,,India,West Bengal,Kolkata
Makeup Salon,Makeup Salon,,,,,"185/1Q, Netaji Subhash Chandra Bose Road, Netaji Nagar, Tollygunge, Regent Grove, Bansdroni",700040,,,India,West Bengal,Kolkata
Budding Leaf,Budding Leaf,,,,,1358 Survey Park Opp Apex Hospital,700075,,,India,West Bengal,Kolkata
Green Trends Unisex,Green Trends Unisex,,,,,"68/6, Baghajatin Bazar Road, Baghajatin Colony",700092,,,India,West Bengal,Kolkata
Krishna's Salon,Krishna's Salon,,,,,"A15, A15/1, Poddar Nagar, Jadavpur, Near Katju Nagar High School",700032,,,India,West Bengal,Kolkata
Rosaleen,Rosaleen,,,,,"80e, Regent Estate, Jadavpur (Near Bijaygarh Sikshaniketan Girls School)",700092,,,India,West Bengal,Kolkata
Santosh Salon,Santosh Salon,,,,,"Shree Colony Road, Near Mukul Bose Playground, Regent Estate, Bijoygarh",700047,,,India,West Bengal,Kolkata
Miraculous Lifestyle,Miraculous Lifestyle,,,,,"141/1A, Rash Behari Avenue, Dover Terrace, Ballygunge",700029,,,India,West Bengal,Kolkata
Barbie Beauty parlour,Barbie Beauty Parlour,,,,,"E-30, Baghajatin, Near Sajjyaniketan, K.D. Road, Sarat Kanan Pally, Nainan Para, Baranagar",700086,,,India,West Bengal,Kolkata
Nilima Salon,Nilima Salon,,,,,"Rashbehari Avenue, Rathtala, Ballygunge",700042,,,India,West Bengal,Kolkata
Angel Beauty Parlour,Angel Beauty Parlour,,,,,"4/39, Graham Road, Samajgarh, Bijoygarh",700032,,,India,West Bengal,Kolkata
ANG Ladies Beauty Parlour,ANG Ladies Beauty Parlour,,,,,"93, Laskarpur Road, Purbapara, Nandan Apartment, Near B D Memorial School, Garia",700153,,,India,West Bengal,Kolkata
Rups Family Salon,Rups Family Salon,,,,,"33, Netaji Nagar Road, Subhash Pally, Pallisree, Netaji Nagar",700092,,,India,West Bengal,Kolkata
