Company Name ,Profile Heading,About Company,Email,Contact,Toll Free Number,Main Address ,Address Pincode,Address URL,Company Registration Number,Country,State,City
The DogSpot,The DogSpot,"The Dogspot - Dog Cage, Dog Harness Set & Dog Coller Set Manufacturer from Kolkata, West Bengal, India",,,,15 Ultadanga Road,700067,,,India,West Bengal,Kolkata
Pawfect Pet Shop,Pawfect Pet Shop,,,,,"Jharna Villa, Mahatirtham, Madurdaha 312, Madurdaha, Hussainpur",,,,India,West Bengal,Kolkata
South Corona,South Corona,"We, at the Corona Pet Shop, have been serving the pet owners in Kolkata from the year 1980.",,,,"Gyeta Bhaban, 166A Sarat Bose Road, Lake Police Station",700029,,,India,West Bengal,Kolkata
Paradise Pet Shop,Paradise Pet Shop,"Paradise Pet Shop - Animals Food, Gold Fish & Sardine Fish Service Provider from Kolkata, West Bengal, India",,,,26 Canal Street,700089,,,India,West Bengal,Kolkata
Pet Plaza,Pet Plaza,Welcome to PetPlaza.co.in. Our aim is to prouide our customer with the best quality Pet . Which suits their need to the best . ,,,,"P-423, Raja Subodh Chandra Mullick Road, Babu Bagan, Dhakuria",700068,,,India,West Bengal,Kolkata
The Pet Shop,The Pet Shop,"A renowned pet shop in Kolkata. All short of fish and fish products, dog and canine product. Best blood line puppy and bird for sale. ",,,,"Roy Bahadur Road, Gholeshapur, Behala, Near Himadri Sanitation",700034,,,India,West Bengal,Kolkata
Pet Shop,Pet Shop,,,,,"16/2, Gariahat Road, Kolkata - 700019",700156,,,India,West Bengal,Kolkata
New Hindustan Pet Shop,New Hindustan Pet Shop,,,,,"16, Sudder Street, Near Globe Cinema, Park Street",700017,,,India,West Bengal,Kolkata
Royal Kolkata Pet Shop,Royal Kolkata Pet Shop,,,,,"208/9, Raja Rammohan Roy Road",700008,,,India,West Bengal,Kolkata
Anisha Pet World,Anisha Pet World,"Wholesaler of fish aquarium, Aquarium & Fish Food offered by Anisha Pet World from Kolkata, West Bengal, India ",,,,"T44, Teghoria Near Chinarpark Rajathat Main Road",700015,,,India,West Bengal,Kolkata
Maa Tara Pet Care,Maa Tara Pet Care,,,,,"101, Purba Sinthi Road, Near Seba Medical Hall, South Dumdum",700030,,,India,West Bengal,Kolkata
City Pet Center,City Pet Center,"City Pet Center | Products & Services - Wholesaler of Royal Canin Maxi Puppy, Dog Food and Royal Mini Puppy from Kolkata",,,,"1A/A423, Raja Subodh Chandra Mullick Road, Selimpur, Dhakuria",700031,,,India,West Bengal,Kolkata
Loyal Pet Zone,Loyal Pet Zone,"We are authorized re-sellers of pet food, treats, accessories, toys, litter, veterinary medicines, and vaccines of more than 100+ brands.",,,,"226, Mahendra Bhattacherjee Road, Howrah",711104,,,India,West Bengal,Kolkata
Pet Pride,Pet Pride,,,,,"Simpark Mall, 1, Shriram Arcade, Lindsay St, New Market Area, Dharmatala, Taltala",700087,,,India,West Bengal,Kolkata
Pink Paws,Pink Paws,Pink Paws is the leading online pet shop in Kolkata offering a wide range of pet products & pet grooming in Kolkata.,,,,"169, Rajdanga Nabapally Ln",700064,,,India,West Bengal,Kolkata
The Royal Pet,The Royal Pet,,,,,"6, Garfa Naskar Para, Kalikapur Road, Near Safuipara Crossing",700078,,,India,West Bengal,Kolkata
Sunita Pet Shop,Sunita Pet Shop,"Sunita Pet Shop And Clinic - Service Provider of Pet Food, Veterinary Medicines & Pet Shampoo from Kolkata, West Bengal, India ",,,,"9, Haltu School Rd, Neli Nagar, Haltu, Kolkata, West Bengal 700078",700078,,,India,West Bengal,Kolkata
Animal Planet,Animal Planet,,,,,"115, Lake Terrace, Near Sai Mandir",700029,,,India,West Bengal,Kolkata
HKG Pet Shop And Clinic,HKG Pet Shop And Clinic,,,,,58/1 Roy Bahadur Road,700034,,,India,West Bengal,Kolkata
Kashika's Pampered Paws,Kashika's Pampered Paws,"We are the only internationally certified pet management company!! we run a pet grooming salon, pet hotel , pet bakery , pet events",,,,"59A/1/1, Rash Behari Avenue, Bosepukur, Kasba",700042,,,India,West Bengal,Kolkata
Little Mermaid,Little Mermaid,Pet Shop & online store for aquarium enthusiasts & pet owners.,,,,Sr Das Road 4.b,700026,,,India,West Bengal,Kolkata
Sandhya Pet Food Shop,Sandhya Pet Food Shop,,,,,Bramha Samaj Road,700034,,,India,West Bengal,Kolkata
Oriana Pet Care,Oriana Pet Care,,,,,26a/1 Bosepukur Road,700042,,,India,West Bengal,Kolkata
Paws Pet,Paws Pet,"Ever since its inception, Pink Paws has made significant progress to emerge as a renowned pet shop in Kolkata",,,,Sreecolony Market,700032,,,India,West Bengal,Kolkata
Pet Partners,Pet Partners,"PetPartners is more than a name -- it’s a promise. Since 2002, we’ve delivered on that promise by leading the way in pet insurance",,,,23a D.h Road Newalipur,700053,,,India,West Bengal,Kolkata
Rajdwip Exotic,Rajdwip Exotic,"Rajdwip Exotic Pets World - Retailer of Fish Food, Aquarium Fish & Fish Foods from Howrah, West Bengal, India ",,,,"Mohinath Poral Lane, Bally Jagachha",711106,,,India,West Bengal,Kolkata
The Pet Point,The Pet Point,THE PET POINT is a Pet store located in Kolkata,,,,"Barwaritola, Kestopur",700102,,,India,West Bengal,Kolkata
Aabi Pet Shop,Aabi Pet Shop,AABI PET SHOP is a Pet supply store located in Kolkata,,,,"39, Dakhin Para Road, Purva Apartment",700028,,,India,West Bengal,Kolkata
Woof Pet Supplies,Woof Pet Supplies,,,,,"Grand Trunk Road, Belur Math, Howrah, Near Sport Volt",711202,,,India,West Bengal,Kolkata
Pets Nation,Pets Nation,"A unique pet shop with lots of love . Specialy for imported breeds of dogs ,exotic birds ,kitten",,,,6A Raja S C Mallick Road,700092,,,India,West Bengal,Kolkata
Get Well Pet Center,Get Well Pet Center,Get Well Pet Centre is a Pet supply store located in Kolkata,,,,"187, Sarat Bose Road",700029,,,India,West Bengal,Kolkata
Paws & Claws,Paws & Claws,PAWS & CLAWS Animal Rescue Inc. is a non-profit organization comprised solely of dedicated and experienced volunteers,,,,"Ef 122, Premises No 839, Rajdanga Main Road",700107,,,India,West Bengal,Kolkata
Pets Avi & Soni,Pets Avi & Soni,Pets Avi & Soni Is One of Renowned Pet Supplier I Kolkata.They Provide AAll kind of Quality pets,,,,1/42 Netaji Nagar,700047,,,India,West Bengal,Kolkata
Door2Door Pet Store,Door2Door Pet Store,We have a wide variety of different pets to choose from,,,,899 Kastodanga Road Jubilee Park,700061,,,India,West Bengal,Kolkata
Animal And Pet Care,Animal And Pet Care,Animal & Pet Care is a Pet supply store located in Kolkata .,,,,"Banerjee Para Road, Near Shiv Mandir, Tollygunge, Paschim Putiary",700041,,,India,West Bengal,Kolkata
Pets In City,Pets In City,"Pets In The City is one of the best pet care providers that offer dog daycare, dog kennels, dog boarding, and our pet hotel services",,,,"1/74, Netaji Subhash Chandra Bose Rd, Naktala, Garia",700047,,,India,West Bengal,Kolkata
BD Pet Clinic,BD Pet Clinic,,,,,76 Raja S.c.Mallick Road. Kol 700047,700047,,,India,West Bengal,Kolkata
Pet World,Pet World,Petsworld.in is an eminent online pet food shop that caters to needs of growing pet owners all over India. ,,,,"Dunlop, Near Rainbow Clinic",711101,,,India,West Bengal,Kolkata
Pups & Paw,Pups & Paw,,,,,"305, North 24 Parganas, Jessore Road, Dum Dum",700089,,,India,West Bengal,Kolkata
Pet Products india,Pet Products India,"We are supplier of wide range of pet food, nutrition, supplements, accessories to keep your pet happy",,,,"HC Dutta Road, Sodepur",700115,,,India,West Bengal,Kolkata
ADI Urban Pet,ADI Urban Pet,"Adi Urban Pet | Products & Services - Wholesaler of kids toys, Toy and Pedigree from Kolkata",,,,"113 Madhusudan Banerjee Road, Barrackpur-II",700049,,,India,West Bengal,Kolkata
Pet Pride,Pet Pride,,,,,"Simpark Mall, 1, Shriram Arcade, Lindsay St, New Market Area, Dharmatala, Taltala",700087,,,India,West Bengal,Kolkata
Discus Sale Pet Stores,Discus Sale Pet Stores,,,,,"N6, Bhagmari Road, Brs 3, Salt Lake City",700064,,,India,West Bengal,Kolkata
Cats N Dogs,Cats N Dogs,,,,,"123, Chetla Central Road, Ahindra Mancha, Alipur",700027,,,India,West Bengal,Kolkata
Just Pets,Just Pets,,,,,"105, Canal Street, Sreebhumi",700048,,,India,West Bengal,Kolkata
Anima Stores,Anima Stores,,,,,"Sector 1, Salt Lake City",700064,,,India,West Bengal,Kolkata
Pets for you,Pets for you,,,,,"5/18A, P G M Shah Road",700095,,,India,West Bengal,Kolkata
Pets Village,Pets Village,,,,,Jadavpur,700001,,,India,West Bengal,Kolkata
Das Kennel,Das Kennel,,,,,"628, Madhusudan Banerjee Road, Sukantapally, Birati",700051,,,India,West Bengal,Kolkata
Jewels Under The Sea,Jewels under The Sea,,,,,"18, Sultan Alam Road",700033,,,India,West Bengal,Kolkata
Aqua Pets,Aqua pets,,,,,"481, Lake Gardens",700045,,,India,West Bengal,Kolkata
Debasis Aquarium,Debasis Aquarium,,,,,"Main Road, Garia",700084,,,India,West Bengal,Kolkata
Saha aquariums,Saha Aquariums,,,,,"648, Jessore Road, Dum Dum",700028,,,India,West Bengal,Kolkata
King Fisher,King Fisher,,,,,"133, Raja S C Mullick Road",700032,,,India,West Bengal,Kolkata
Sarkar Aqua Scape,Sarkar Aqua Scape,,,,,"Shyampukur, Maheshtala",700141,,,India,West Bengal,Kolkata
Micky Aquarium,Micky Aquarium,,,,,"115, Duttabad Road, Salt Lake City",700064,,,India,West Bengal,Kolkata
Tania Aquarium Center,Tania Aquarium Center,,,,,Madhyamgram,700129,,,India,West Bengal,Kolkata
Lokenath aquarium,Lokenath Aquarium,,,,,"237/2, Prafullkanan East, Krishnapur",700101,,,India,West Bengal,Kolkata
Fish spot,Fish Spot,,,,,Sonarpur Station Road,700103,,,India,West Bengal,Kolkata
Chakroborty Aquarium,Chakroborty Aquarium,,,,,"188/1, Bankim Mukherjee Sarani, Sahapur",700053,,,India,West Bengal,Kolkata
Aqua Pisces,aqua Pisces,,,,,"Shop No. 007, Station Road, Garia",700008,,,India,West Bengal,Kolkata
Setts Pet Shop,Setts Pet Shop,,,,,"BC 35, Salt Lake City",700064,,,India,West Bengal,Kolkata
Reef World,Reef World,,,,,"162/27, S N Roy Road, Behala",700034,,,India,West Bengal,Kolkata
Dey Aquarium Center,Dey Aquarium Center,,,,,"Barasat Road, Sodepur",700110,,,India,West Bengal,Kolkata
Das Aquarium Fish,Das Aquarium Fish,,,,,Jorabagan,700006,,,India,West Bengal,Kolkata
Aquatics,Aquatics,,,,,"P 41, Garia",700084,,,India,West Bengal,Kolkata
Shibani aquarium,Shibani Aquarium,,,,,"156, B B Ganguly Street, Bowbaza",700012,,,India,West Bengal,Kolkata
Sidhi Vinayak Fancy fish,Sidhi Vinayak Fancy Fish,,,,,"25/1, Dr Suresh Chandra Banerjee Road, Beliaghata",700010,,,India,West Bengal,Kolkata
Aqua Touch,Aqua Touch,,,,,"Near Sonarpur Power House, Ramkrishna Sarani, Sonarpur",700150,,,India,West Bengal,Kolkata
Abhar Aquarium,Abhar Aquarium,,,,,"144/1, Tarun Sengupta Sarani, Dum Dum",700028,,,India,West Bengal,Kolkata
Unique Pet Shop,Unique Pet Shop,,,,,"S 4, DDA Market, Saket",700010,,,India,West Bengal,Kolkata
Pet Arena,Pet Arena,,,,,"16, Raja Manindra Road, Gangulipara",700037,,,India,West Bengal,Kolkata
Paws,Paws,,,,,"29/1 A, Circular Road, Ballygunge",700019,,,India,West Bengal,Kolkata
Jesmine Merry Pet hospital,Jesmine Merry Pet Hospital,,,,,Dunlop,700108,,,India,West Bengal,Kolkata
Moitri Veterinary Clinic,Moitri Veterinary Clinic,,,,,Tollygunge,700033,,,India,West Bengal,Kolkata
